CYGFM08                 
1 41888U 16078E   26073.26667290  .00030280  00000+0  43952-3 0  9995
2 41888  34.9434 150.6992 0007537 347.2952  12.7580 15.54760887514165
CYGFM07                 
1 41890U 16078G   26073.29659014  .00030146  00000+0  43219-3 0  9993
2 41890  34.9452 138.9344 0005635   6.9699 353.1103 15.55113106514195
CYGFM03                 
1 41891U 16078H   26073.26761888  .00029473  00000+0  42260-3 0  9990
2 41891  34.9408 141.0995 0005107 349.8011  10.2609 15.55115711514168
FENGYUN 3D              
1 43010U 17072A   26073.28756591  .00000074  00000+0  56600-4 0  9997
2 43010  99.0036  46.0423 0001388   3.9430 356.1756 14.19716411431528
NOAA 20 (JPSS-1)        
1 43013U 17073A   26073.26895954  .00000075  00000+0  56404-4 0  9999
2 43013  98.7696  13.6106 0001406 131.7733 228.3564 14.19537385431005
GOES 17                 
1 43226U 18022A   26073.19419656 -.00000183  00000+0  00000+0 0  9990
2 43226   0.6918  87.3284 0001630 234.3021 190.5794  1.00272612 29478
FENGYUN 2H              
1 43491U 18050A   26073.15632309 -.00000127  00000+0  00000+0 0  9991
2 43491   2.7842  80.2299 0001320 170.9228  55.9961  1.00272624 28482
METOP-C                 
1 43689U 18087A   26073.25579983  .00000129  00000+0  78615-4 0  9992
2 43689  98.6756 134.5511 0002188  93.5091 266.6337 14.21498612381349
GEO-KOMPSAT-2A          
1 43823U 18100A   26073.23735676 -.00000345  00000+0  00000+0 0  9998
2 43823   0.0359  30.4253 0001627  25.0081 330.1282  1.00271154 26679
METEOR-M2 2             
1 44387U 19038A   26073.27091626  .00000409  00000+0  19675-3 0  9991
2 44387  98.9094  59.1862 0000647 352.4162   7.7006 14.24337210347784
ARKTIKA-M 1             
1 47719U 21016A   26072.78872222 -.00000108  00000+0  00000+0 0  9991
2 47719  63.2042  71.2738 7248342 269.5023  15.1596  2.00619294 36876
FENGYUN 3E              
1 49008U 21062A   26073.28243604  .00000322  00000+0  17255-3 0  9998
2 49008  98.7519  77.7452 0002092  33.4432 326.6876 14.19895111243115
GOES 18                 
1 51850U 22021A   26073.25607683  .00000096  00000+0  00000+0 0  9994
2 51850   0.0344  35.5849 0000810  26.2340  65.2295  1.00272745  5644
NOAA 21 (JPSS-2)        
1 54234U 22150A   26073.30361587  .00000090  00000+0  63393-4 0  9995
2 54234  98.7558  13.5167 0002740  98.4208 261.7279 14.19553586173089
METEOSAT-12 (MTG-I1)    
1 54743U 22170C   26073.21187666 -.00000008  00000+0  00000+0 0  9997
2 54743   0.7114  22.9329 0001753 291.6133 293.2086  1.00271324 12021
TIANMU-1 03             
1 55973U 23039A   26073.28556690  .00020137  00000+0  43750-3 0  9999
2 55973  97.5179 243.7602 0004010  88.7465 271.4242 15.44378889166176
TIANMU-1 04             
1 55974U 23039B   26073.24301294  .00021663  00000+0  46382-3 0  9993
2 55974  97.5112 242.8751 0004585  83.8026 276.3744 15.44794447166178
TIANMU-1 05             
1 55975U 23039C   26073.26233419  .00020486  00000+0  44593-3 0  9993
2 55975  97.5158 243.3858 0003881 105.8551 254.3125 15.44319266166158
TIANMU-1 06             
1 55976U 23039D   26073.24273583  .00021669  00000+0  46355-3 0  9990
2 55976  97.5170 243.9101 0004150 100.9345 259.2371 15.44822196166177
FENGYUN 3G              
1 56232U 23055A   26073.26834692  .00031935  00000+0  52263-3 0  9992
2 56232  49.9923 115.4066 0005939 313.9404  46.1072 15.52150919165256
METEOR-M2 3             
1 57166U 23091A   26073.31440477  .00000006  00000+0  21443-4 0  9991
2 57166  98.6205 130.1850 0005100  88.6631 271.5133 14.24038130141018
TIANMU-1 07             
1 57399U 23101A   26073.29629829  .00008305  00000+0  29553-3 0  9997
2 57399  97.2723 126.1429 0004929 124.8946 235.2758 15.29202779147141
TIANMU-1 08             
1 57400U 23101B   26066.00237819  .00000346  00000+0  14775-4 0  9993
2 57400  97.2717 118.7901 0006380 134.2174 225.9592 15.29204229146020
TIANMU-1 09             
1 57401U 23101C   26073.24787914  .00008316  00000+0  29634-3 0  9998
2 57401  97.2669 125.3458 0005174 128.1667 232.0041 15.29154010147130
TIANMU-1 10             
1 57402U 23101D   26073.28165742  .00008765  00000+0  31078-3 0  9995
2 57402  97.2748 126.3272 0007141 121.5817 238.6122 15.29293119147130
FENGYUN 3F              
1 57490U 23111A   26073.26828816  .00000062  00000+0  49441-4 0  9995
2 57490  98.6914 145.0170 0001165  77.6651 282.4656 14.19920596135397
ARKTIKA-M 2             
1 58584U 23198A   26064.07652728  .00000150  00000+0  00000+0 0  9992
2 58584  63.2186 165.9003 6877723 267.7621  18.8474  2.00612038 16239
TIANMU-1 11             
1 58645U 23205A   26073.33087444  .00007287  00000+0  28636-3 0  9992
2 58645  97.3546  96.4063 0008441 351.9184   8.1917 15.25949577123051
TIANMU-1 12             
1 58646U 23205B   26073.29794038  .00007180  00000+0  28291-3 0  9991
2 58646  97.3534  96.1517 0006218 336.5254  23.5700 15.25877012123030
TIANMU-1 13             
1 58647U 23205C   26073.32868547  .00007619  00000+0  29958-3 0  9991
2 58647  97.3562  96.4229 0006004 313.6316  46.4424 15.25928825123039
TIANMU-1 14             
1 58648U 23205D   26073.24775016  .00007285  00000+0  28675-3 0  9995
2 58648  97.3496  95.6079 0006872 318.3163  41.7551 15.25903087123026
TIANMU-1 19             
1 58660U 23208A   26073.30833329  .00011512  00000+0  39951-3 0  9998
2 58660  97.4383 189.3005 0003757 295.7676  64.3177 15.29942147122817
TIANMU-1 20             
1 58661U 23208B   26073.28906881  .00011431  00000+0  38235-3 0  9994
2 58661  97.4324 189.8195 0006020 305.8612  54.2070 15.31129183122895
TIANMU-1 21             
1 58662U 23208C   26073.28153525  .00013771  00000+0  43187-3 0  9995
2 58662  97.4378 192.1041 0005839 299.0218  61.0438 15.33157307123015
TIANMU-1 22             
1 58663U 23208D   26073.26171589  .00011191  00000+0  39318-3 0  9999
2 58663  97.4379 189.2619 0002782 333.6274  26.4824 15.29550059122813
TIANMU-1 15             
1 58700U 24004A   26073.31106122  .00007791  00000+0  30649-3 0  9992
2 58700  97.4673 259.5432 0006287 332.6655  27.4251 15.25908709121305
TIANMU-1 16             
1 58701U 24004B   26073.29444422  .00007735  00000+0  30407-3 0  9998
2 58701  97.4615 258.8464 0004818 339.2894  20.8148 15.25943775121309
TIANMU-1 17             
1 58702U 24004C   26073.27666950  .00007915  00000+0  31078-3 0  9994
2 58702  97.4647 259.2847 0004081 343.1127  16.9975 15.25978868121293
TIANMU-1 18             
1 58703U 24004D   26073.32757491  .00008012  00000+0  31505-3 0  9996
2 58703  97.4665 259.5476 0003470 344.7653  15.3480 15.25925313121300
INSAT-3DS               
1 58990U 24033A   26073.15684309 -.00000156  00000+0  00000+0 0  9998
2 58990   0.0304 244.7542 0002151 124.0606 301.4873  1.00271979 46110
METEOR-M2 4             
1 59051U 24039A   26073.29174556  .00000040  00000+0  37784-4 0  9991
2 59051  98.6910  33.8349 0008198  84.9491 275.2623 14.22418105105771
GOES 19                 
1 60133U 24119A   26073.05440265 -.00000249  00000+0  00000+0 0  9998
2 60133   0.0396 354.8082 0001077  46.5415  74.7204  1.00271675  6013
FENGYUN 3H              
1 65815U 25219A   26073.26449367  .00000079  00000+0  57489-4 0  9995
2 65815  98.6689  15.9192 0001194  60.0489 300.0806 14.19933991 23913
OSCAR 7 (AO-7)          
1 07530U 74089B   26072.94475469 -.00000020  00000+0  16708-3 0  9995
2 07530 101.9966  85.1804 0011946 313.8747 110.0971 12.53696440348586
PHASE 3B (AO-10)        
1 14129U 83058B   26072.70379219  .00000107  00000+0  00000+0 0  9992
2 14129  25.9213 235.5807 6045284  89.2129 335.2286  2.05870209293524
UOSAT 2 (UO-11)         
1 14781U 84021B   26073.30576145  .00001841  00000+0  19403-3 0  9998
2 14781  97.7953  40.0142 0008702 130.1245 230.0737 14.90524636242995
LUSAT (LO-19)           
1 20442U 90005G   26073.29561196  .00000181  00000+0  81521-4 0  9993
2 20442  98.8933  92.4531 0012512 121.9319 238.3083 14.34090148888796
EYESAT A (AO-27)        
1 22825U 93061C   26073.18223763  .00000118  00000+0  61916-4 0  9994
2 22825  98.6972 140.5955 0008737  26.6550 333.5080 14.30914705693419
ITAMSAT (IO-26)         
1 22826U 93061D   26073.18986663  .00000136  00000+0  68368-4 0  9998
2 22826  98.6920 140.5111 0008942  10.2829 349.8535 14.31338914693725
RADIO ROSTO (RS15)      
1 23439U 94085A   26073.30735988 -.00000042  00000+0  27269-5 0  9995
2 23439  64.8133  96.6641 0152831  21.1629 339.5528 11.27583899285206
JAS-2 (FO-29)           
1 24278U 96046B   26073.23048003  .00000018  00000+0  56138-4 0  9991
2 24278  98.5375 295.0356 0349629 342.9899  15.9756 13.53269011460328
TECHSAT 1B (GO-32)      
1 25397U 98043D   26072.95472279  .00000111  00000+0  68054-4 0  9991
2 25397  99.0030  63.3318 0002163 112.8953 247.2453 14.24407471437773
ISS (ZARYA)             
1 25544U 98067A   26072.70791847  .00011780  00000+0  22432-3 0  9992
2 25544  51.6324  52.4887 0007884 189.2977 170.7866 15.48633802556952
PCSAT (NO-44)           
1 26931U 01043C   26073.30798470  .00000153  00000+0  87881-4 0  9999
2 26931  67.0498 129.6688 0007003 265.0462  94.9840 14.31914710276866
SAUDISAT 1C (SO-50)     
1 27607U 02058C   26073.27104551  .00002083  00000+0  26271-3 0  9993
2 27607  64.5526  62.6028 0075307 279.8659  79.3951 14.82804742250386
CUTE-1 (CO-55)          
1 27844U 03031E   26072.98964531  .00000396  00000+0  19032-3 0  9999
2 27844  98.6777  82.7351 0010745 101.3524 258.8862 14.24270180178127
CUBESAT XI-IV (CO-57)   
1 27848U 03031J   26073.28205840  .00000333  00000+0  16531-3 0  9990
2 27848  98.6808  82.8126 0010519 116.7646 243.4610 14.23564889177874
MOZHAETS 4 (RS22)       
1 27939U 03042A   26073.35009584  .00001201  00000+0  19401-3 0  9992
2 27939  98.3446 255.0405 0010768 204.1580 274.9323 14.73267957201586
CUBESAT XI-V            
1 28895U 05043F   26073.20123917  .00002218  00000+0  35829-3 0  9999
2 28895  98.2838 226.9108 0014956 143.9195 216.3024 14.72342014 87772
